{
  "type": "FeatureCollection",
  "features": [
    {
      "type": "Feature",
      "properties": {
        "norad_id": 36272,
        "name": "FENGYUN 1C DEB",
        "group": "fengyun-1c-debris",
        "lat": 49.06672657813949,
        "lon": 63.73543135090536,
        "alt_km": 870.7510946921893,
        "timestamp": "2025-12-22T11:33:20.727987+00:00",
        "meta_object_name": "FENGYUN 1C DEB",
        "meta_object_id": "1999-025DWZ",
        "meta_epoch": "2025-12-15T09:29:34.780416",
        "meta_mean_motion": 14.17259115,
        "meta_eccentricity": 0.01679127,
        "meta_inclination": 99.1362,
        "meta_ra_of_asc_node": 225.7589,
        "meta_arg_of_pericenter": 260.5869,
        "meta_mean_anomaly": 97.6289,
        "meta_ephemeris_type": 0,
        "meta_classification_type": "U",
        "meta_norad_cat_id": 36272,
        "meta_element_set_no": 999,
        "meta_rev_at_epoch": 63654,
        "meta_bstar": 0.00052291356,
        "meta_mean_motion_dot": 1.164e-05,
        "meta_mean_motion_ddot": 0,
        "tle_line1": "1 36272U 99025DWZ 25349.39554144  .00001164  00000+0  52291-3 0  9996",
        "tle_line2": "2 36272  99.1362 225.7589 0167912 260.5869  97.6289 14.17259115636543"
      },
      "geometry": {
        "type": "Point",
        "coordinates": [
          63.73543135090536,
          49.06672657813949
        ]
      }
    },
    {
      "type": "Feature",
      "properties": {
        "norad_id": 36273,
        "name": "FENGYUN 1C DEB",
        "group": "fengyun-1c-debris",
        "lat": 79.95124180370378,
        "lon": 119.54733826394184,
        "alt_km": 875.1462610775206,
        "timestamp": "2025-12-22T11:33:20.727998+00:00",
        "meta_object_name": "FENGYUN 1C DEB",
        "meta_object_id": "1999-025DXA",
        "meta_epoch": "2025-12-10T21:07:00.418080",
        "meta_mean_motion": 14.16564043,
        "meta_eccentricity": 0.0096501,
        "meta_inclination": 99.6045,
        "meta_ra_of_asc_node": 214.1863,
        "meta_arg_of_pericenter": 353.8475,
        "meta_mean_anomaly": 6.1504,
        "meta_ephemeris_type": 0,
        "meta_classification_type": "U",
        "meta_norad_cat_id": 36273,
        "meta_element_set_no": 999,
        "meta_rev_at_epoch": 66207,
        "meta_bstar": 0.00042955,
        "meta_mean_motion_dot": 8.45e-06,
        "meta_mean_motion_ddot": 0,
        "tle_line1": "1 36273U 99025DXA 25344.87986595  .00000845  00000+0  42955-3 0  9995",
        "tle_line2": "2 36273  99.6045 214.1863 0096501 353.8475   6.1504 14.16564043662078"
      },
      "geometry": {
        "type": "Point",
        "coordinates": [
          119.54733826394184,
          79.95124180370378
        ]
      }
    },
    {
      "type": "Feature",
      "properties": {
        "norad_id": 36274,
        "name": "FENGYUN 1C DEB",
        "group": "fengyun-1c-debris",
        "lat": -10.020701085021296,
        "lon": 72.64516838050176,
        "alt_km": 855.1170842431602,
        "timestamp": "2025-12-22T11:33:20.728008+00:00",
        "meta_object_name": "FENGYUN 1C DEB",
        "meta_object_id": "1999-025DXB",
        "meta_epoch": "2025-12-17T22:47:53.566656",
        "meta_mean_motion": 14.23538115,
        "meta_eccentricity": 0.00628177,
        "meta_inclination": 99.1393,
        "meta_ra_of_asc_node": 66.31,
        "meta_arg_of_pericenter": 216.0031,
        "meta_mean_anomaly": 323.0496,
        "meta_ephemeris_type": 0,
        "meta_classification_type": "U",
        "meta_norad_cat_id": 36274,
        "meta_element_set_no": 999,
        "meta_rev_at_epoch": 63059,
        "meta_bstar": 0.0023477319,
        "meta_mean_motion_dot": 5.408e-05,
        "meta_mean_motion_ddot": 0,
        "tle_line1": "1 36274U 99025DXB 25351.94992554  .00005408  00000+0  23477-2 0  9991",
        "tle_line2": "2 36274  99.1393  66.3100 0062817 216.0031 323.0496 14.23538115630594"
      },
      "geometry": {
        "type": "Point",
        "coordinates": [
          72.64516838050176,
          -10.020701085021296
        ]
      }
    },
    {
      "type": "Feature",
      "properties": {
        "norad_id": 36278,
        "name": "FENGYUN 1C DEB",
        "group": "fengyun-1c-debris",
        "lat": 3.438279469615597,
        "lon": -85.52278081197994,
        "alt_km": 844.2636703268199,
        "timestamp": "2025-12-22T11:33:20.728018+00:00",
        "meta_object_name": "FENGYUN 1C DEB",
        "meta_object_id": "1999-025DXF",
        "meta_epoch": "2025-12-18T00:48:19.487232",
        "meta_mean_motion": 14.17390163,
        "meta_eccentricity": 0.00606793,
        "meta_inclination": 99.1246,
        "meta_ra_of_asc_node": 270.466,
        "meta_arg_of_pericenter": 275.7743,
        "meta_mean_anomaly": 83.6515,
        "meta_ephemeris_type": 0,
        "meta_classification_type": "U",
        "meta_norad_cat_id": 36278,
        "meta_element_set_no": 999,
        "meta_rev_at_epoch": 93551,
        "meta_bstar": 0.00036894737,
        "meta_mean_motion_dot": 7.13e-06,
        "meta_mean_motion_ddot": 0,
        "tle_line1": "1 36278U 99025DXF 25352.03355888  .00000713  00000+0  36895-3 0  9992",
        "tle_line2": "2 36278  99.1246 270.4660 0060679 275.7743  83.6515 14.17390163935513"
      },
      "geometry": {
        "type": "Point",
        "coordinates": [
          -85.52278081197994,
          3.438279469615597
        ]
      }
    },
    {
      "type": "Feature",
      "properties": {
        "norad_id": 36279,
        "name": "FENGYUN 1C DEB",
        "group": "fengyun-1c-debris",
        "lat": -65.8100934349712,
        "lon": -6.316973151878321,
        "alt_km": 854.043624582584,
        "timestamp": "2025-12-22T11:33:20.728027+00:00",
        "meta_object_name": "FENGYUN 1C DEB",
        "meta_object_id": "1999-025DXG",
        "meta_epoch": "2025-12-18T17:54:37.410912",
        "meta_mean_motion": 14.14731224,
        "meta_eccentricity": 0.00627999,
        "meta_inclination": 98.5619,
        "meta_ra_of_asc_node": 330.5051,
        "meta_arg_of_pericenter": 38.3963,
        "meta_mean_anomaly": 322.1656,
        "meta_ephemeris_type": 0,
        "meta_classification_type": "U",
        "meta_norad_cat_id": 36279,
        "meta_element_set_no": 999,
        "meta_rev_at_epoch": 89124,
        "meta_bstar": 0.00011213671,
        "meta_mean_motion_dot": 1.78e-06,
        "meta_mean_motion_ddot": 0,
        "tle_line1": "1 36279U 99025DXG 25352.74626633  .00000178  00000+0  11214-3 0  9993",
        "tle_line2": "2 36279  98.5619 330.5051 0062799  38.3963 322.1656 14.14731224891247"
      },
      "geometry": {
        "type": "Point",
        "coordinates": [
          -6.316973151878321,
          -65.8100934349712
        ]
      }
    },
    {
      "type": "Feature",
      "properties": {
        "norad_id": 36280,
        "name": "FENGYUN 1C DEB",
        "group": "fengyun-1c-debris",
        "lat": 21.497454397161917,
        "lon": -151.29480521404403,
        "alt_km": 882.5720344638385,
        "timestamp": "2025-12-22T11:33:20.728037+00:00",
        "meta_object_name": "FENGYUN 1C DEB",
        "meta_object_id": "1999-025DXH",
        "meta_epoch": "2025-12-20T20:29:20.214816",
        "meta_mean_motion": 14.09762014,
        "meta_eccentricity": 0.00628036,
        "meta_inclination": 98.7661,
        "meta_ra_of_asc_node": 23.6358,
        "meta_arg_of_pericenter": 42.5418,
        "meta_mean_anomaly": 138.3217,
        "meta_ephemeris_type": 0,
        "meta_classification_type": "U",
        "meta_norad_cat_id": 36280,
        "meta_element_set_no": 999,
        "meta_rev_at_epoch": 86468,
        "meta_bstar": 0.00065706683,
        "meta_mean_motion_dot": 1.133e-05,
        "meta_mean_motion_ddot": 0,
        "tle_line1": "1 36280U 99025DXH 25354.85370619  .00001133  00000+0  65707-3 0  9997",
        "tle_line2": "2 36280  98.7661  23.6358 0062803  42.5418 138.3217 14.09762014864689"
      },
      "geometry": {
        "type": "Point",
        "coordinates": [
          -151.29480521404403,
          21.497454397161917
        ]
      }
    },
    {
      "type": "Feature",
      "properties": {
        "norad_id": 36281,
        "name": "FENGYUN 1C DEB",
        "group": "fengyun-1c-debris",
        "lat": 10.75474495964911,
        "lon": 99.69274934735972,
        "alt_km": 1004.2923447272997,
        "timestamp": "2025-12-22T11:33:20.728047+00:00",
        "meta_object_name": "FENGYUN 1C DEB",
        "meta_object_id": "1999-025DXJ",
        "meta_epoch": "2025-12-20T00:30:26.383680",
        "meta_mean_motion": 13.60294135,
        "meta_eccentricity": 0.02913999,
        "meta_inclination": 99.2595,
        "meta_ra_of_asc_node": 275.5857,
        "meta_arg_of_pericenter": 92.0584,
        "meta_mean_anomaly": 271.3952,
        "meta_ephemeris_type": 0,
        "meta_classification_type": "U",
        "meta_norad_cat_id": 36281,
        "meta_element_set_no": 999,
        "meta_rev_at_epoch": 84616,
        "meta_bstar": 0.00281607,
        "meta_mean_motion_dot": 2.757e-05,
        "meta_mean_motion_ddot": 0,
        "tle_line1": "1 36281U 99025DXJ 25354.02113870  .00002757  00000+0  28161-2 0  9996",
        "tle_line2": "2 36281  99.2595 275.5857 0291399  92.0584 271.3952 13.60294135846169"
      },
      "geometry": {
        "type": "Point",
        "coordinates": [
          99.69274934735972,
          10.75474495964911
        ]
      }
    }
  ]
}